ONEWEB-0228             
1 48780U 21045P   24107.54818571 -.00000091  00000+0 -27687-3 0  9996
2 48780  87.9022  56.7119 0001780  80.7101 279.4231 13.15548741141372
